[{"OBJECT_NAME":"KUIPER-00226","OBJECT_ID":"2026-030X","EPOCH":"2026-03-03T21:10:24.604608","MEAN_MOTION":15.31341456,"ECCENTRICITY":0.00195647,"INCLINATION":51.8808,"RA_OF_ASC_NODE":247.6312,"ARG_OF_PERICENTER":56.1657,"MEAN_ANOMALY":304.1187,"EPHEMERIS_TYPE":0,"CLASSIFICATION_TYPE":"U","NORAD_CAT_ID":67785,"ELEMENT_SET_NO":999,"REV_AT_EPOCH":419,"BSTAR":0.0007291894,"MEAN_MOTION_DOT":0.00022218,"MEAN_MOTION_DDOT":0},{"OBJECT_NAME":"KUIPER-00259","OBJECT_ID":"2026-030Y","EPOCH":"2026-03-03T21:55:10.741728","MEAN_MOTION":15.34806951,"ECCENTRICITY":0.00082064,"INCLINATION":51.8805,"RA_OF_ASC_NODE":247.1,"ARG_OF_PERICENTER":32.9642,"MEAN_ANOMALY":327.1854,"EPHEMERIS_TYPE":0,"CLASSIFICATION_TYPE":"U","NORAD_CAT_ID":67786,"ELEMENT_SET_NO":999,"REV_AT_EPOCH":420,"BSTAR":0.001108189,"MEAN_MOTION_DOT":0.00037812,"MEAN_MOTION_DDOT":0},{"OBJECT_NAME":"KUIPER-00260","OBJECT_ID":"2026-030Z","EPOCH":"2026-03-03T21:30:16.305120","MEAN_MOTION":15.36188637,"ECCENTRICITY":9.008e-5,"INCLINATION":51.8797,"RA_OF_ASC_NODE":246.9877,"ARG_OF_PERICENTER":57.8821,"MEAN_ANOMALY":302.2252,"EPHEMERIS_TYPE":0,"CLASSIFICATION_TYPE":"U","NORAD_CAT_ID":67787,"ELEMENT_SET_NO":999,"REV_AT_EPOCH":411,"BSTAR":0.001182224,"MEAN_MOTION_DOT":0.00042186,"MEAN_MOTION_DDOT":0},{"OBJECT_NAME":"KUIPER-00262","OBJECT_ID":"2026-030AA","EPOCH":"2026-03-03T21:25:38.968032","MEAN_MOTION":15.36500811,"ECCENTRICITY":4.154e-5,"INCLINATION":51.8812,"RA_OF_ASC_NODE":246.9707,"ARG_OF_PERICENTER":138.4862,"MEAN_ANOMALY":221.6156,"EPHEMERIS_TYPE":0,"CLASSIFICATION_TYPE":"U","NORAD_CAT_ID":67788,"ELEMENT_SET_NO":999,"REV_AT_EPOCH":420,"BSTAR":0.0011728681,"MEAN_MOTION_DOT":0.00042275,"MEAN_MOTION_DDOT":0},{"OBJECT_NAME":"KUIPER-00266","OBJECT_ID":"2026-030AB","EPOCH":"2026-03-03T22:50:31.120512","MEAN_MOTION":15.30928027,"ECCENTRICITY":0.00228609,"INCLINATION":51.8809,"RA_OF_ASC_NODE":247.3429,"ARG_OF_PERICENTER":56.0866,"MEAN_ANOMALY":304.2288,"EPHEMERIS_TYPE":0,"CLASSIFICATION_TYPE":"U","NORAD_CAT_ID":67789,"ELEMENT_SET_NO":999,"REV_AT_EPOCH":420,"BSTAR":0.00052436348,"MEAN_MOTION_DOT":0.00015684,"MEAN_MOTION_DDOT":0},{"OBJECT_NAME":"KUIPER-00268","OBJECT_ID":"2026-030AC","EPOCH":"2026-03-03T21:37:02.119008","MEAN_MOTION":15.35732539,"ECCENTRICITY":0.00023639,"INCLINATION":51.8845,"RA_OF_ASC_NODE":247.0263,"ARG_OF_PERICENTER":33.1867,"MEAN_ANOMALY":326.9267,"EPHEMERIS_TYPE":0,"CLASSIFICATION_TYPE":"U","NORAD_CAT_ID":67790,"ELEMENT_SET_NO":999,"REV_AT_EPOCH":420,"BSTAR":0.0010736415,"MEAN_MOTION_DOT":0.00037695,"MEAN_MOTION_DDOT":0},{"OBJECT_NAME":"KUIPER-00270","OBJECT_ID":"2026-030AD","EPOCH":"2026-03-03T22:02:22.423776","MEAN_MOTION":15.34378204,"ECCENTRICITY":0.00099752,"INCLINATION":51.88,"RA_OF_ASC_NODE":247.1311,"ARG_OF_PERICENTER":40.3826,"MEAN_ANOMALY":319.7899,"EPHEMERIS_TYPE":0,"CLASSIFICATION_TYPE":"U","NORAD_CAT_ID":67791,"ELEMENT_SET_NO":999,"REV_AT_EPOCH":420,"BSTAR":0.0008997501,"MEAN_MOTION_DOT":0.00030193,"MEAN_MOTION_DDOT":0},{"OBJECT_NAME":"KUIPER-00274","OBJECT_ID":"2026-030AE","EPOCH":"2026-03-03T22:35:44.602080","MEAN_MOTION":15.3159043,"ECCENTRICITY":0.00175493,"INCLINATION":51.8814,"RA_OF_ASC_NODE":247.285,"ARG_OF_PERICENTER":53.2401,"MEAN_ANOMALY":307.0192,"EPHEMERIS_TYPE":0,"CLASSIFICATION_TYPE":"U","NORAD_CAT_ID":67792,"ELEMENT_SET_NO":999,"REV_AT_EPOCH":420,"BSTAR":0.00057192598,"MEAN_MOTION_DOT":0.00017452,"MEAN_MOTION_DDOT":0},{"OBJECT_NAME":"KUIPER-00275","OBJECT_ID":"2026-030AF","EPOCH":"2026-03-03T21:58:42.685248","MEAN_MOTION":15.34452314,"ECCENTRICITY":0.00087657,"INCLINATION":51.8833,"RA_OF_ASC_NODE":247.1233,"ARG_OF_PERICENTER":37.58,"MEAN_ANOMALY":322.5797,"EPHEMERIS_TYPE":0,"CLASSIFICATION_TYPE":"U","NORAD_CAT_ID":67793,"ELEMENT_SET_NO":999,"REV_AT_EPOCH":420,"BSTAR":0.00089266287,"MEAN_MOTION_DOT":0.00030012,"MEAN_MOTION_DDOT":0},{"OBJECT_NAME":"KUIPER-00276","OBJECT_ID":"2026-030AG","EPOCH":"2026-03-03T22:41:24.900576","MEAN_MOTION":15.31384505,"ECCENTRICITY":0.00187257,"INCLINATION":51.8812,"RA_OF_ASC_NODE":247.3083,"ARG_OF_PERICENTER":51.1114,"MEAN_ANOMALY":309.1537,"EPHEMERIS_TYPE":0,"CLASSIFICATION_TYPE":"U","NORAD_CAT_ID":67794,"ELEMENT_SET_NO":999,"REV_AT_EPOCH":420,"BSTAR":1.6097259e-5,"MEAN_MOTION_DOT":1.2e-6,"MEAN_MOTION_DDOT":0},{"OBJECT_NAME":"KUIPER-00279","OBJECT_ID":"2026-030AH","EPOCH":"2026-03-03T21:49:54.653376","MEAN_MOTION":15.35113105,"ECCENTRICITY":0.00064227,"INCLINATION":51.8796,"RA_OF_ASC_NODE":247.0744,"ARG_OF_PERICENTER":31.4016,"MEAN_ANOMALY":328.7352,"EPHEMERIS_TYPE":0,"CLASSIFICATION_TYPE":"U","NORAD_CAT_ID":67795,"ELEMENT_SET_NO":999,"REV_AT_EPOCH":420,"BSTAR":0.001144985,"MEAN_MOTION_DOT":0.0003946,"MEAN_MOTION_DDOT":0}]
